NORAD_CAT_ID,OBJECT_NAME,OBJECT_TYPE,EPOCH,MEAN_MOTION,ECCENTRICITY,INCLINATION,RA_OF_ASC_NODE,ARG_OF_PERICENTER,MEAN_ANOMALY,BSTAR,MEAN_MOTION_DOT,MEAN_MOTION_DDOT,TLE_LINE0,TLE_LINE1,TLE_LINE2,SEMIMAJOR_AXIS,PERIOD,APOGEE,PERIGEE,DECAYED
54088.0,STARLINK-5153,PAYLOAD,2023-10-17 17:24:22,15.08844866,0.0001603,53.2164,297.6042,82.5241,277.5934,0.00048029,7.365e-05,0.0,0 STARLINK-5153,1 54088U 22136AP  23290.72525672  .00007365  00000-0  48029-3 0  9998,2 54088  53.2164 297.6042 0001603  82.5241 277.5934 15.08844866 55041,6917.866,95.437,540.839,538.622,0.0
54088.0,STARLINK-5153,PAYLOAD,2023-10-18 10:53:36,15.0885062,0.0001648,53.217,294.3336,92.7309,267.3871,0.00027394,4.076e-05,0.0,0 STARLINK-5153,1 54088U 22136AP  23291.45389306  .00004076  00000-0  27394-3 0  9999,2 54088  53.2170 294.3336 0001648  92.7309 267.3871 15.08850620 55621,6917.848,95.437,540.853,538.573,0.0
54088.0,STARLINK-5153,PAYLOAD,2023-10-19 04:22:50,15.08844662,0.0001317,53.216,291.0604,90.4665,269.6478,0.00015375,2.16e-05,0.0,0 STARLINK-5153,1 54088U 22136AP  23292.18253365  .00002160  00000-0  15375-3 0  9993,2 54088  53.2160 291.0604 0001317  90.4665 269.6478 15.08844662 55734,6917.866,95.437,540.642,538.82,0.0
54088.0,STARLINK-5153,PAYLOAD,2023-10-19 09:09:00,15.08850953,0.0001695,53.2165,290.169,89.7771,270.3415,0.00027306,4.062e-05,0.0,0 STARLINK-5153,1 54088U 22136AP  23292.38125281  .00004062  00000-0  27306-3 0  9990,2 54088  53.2165 290.1690 0001695  89.7771 270.3415 15.08850953 55293,6917.847,95.437,540.884,538.539,0.0
54088.0,STARLINK-5153,PAYLOAD,2023-10-19 17:05:56,15.08842783,0.0001681,53.2176,288.6832,87.3709,272.7475,0.00012912,1.768e-05,0.0,0 STARLINK-5153,1 54088U 22136AP  23292.71245606  .00001768  00000-0  12912-3 0  9998,2 54088  53.2176 288.6832 0001681  87.3709 272.7475 15.08842783 55345,6917.872,95.437,540.9,538.574,0.0
54088.0,STARLINK-5153,PAYLOAD,2023-10-20 04:13:38,15.08836812,0.0001902,53.2176,286.6016,90.9313,269.1897,2.8754e-05,1.69e-06,0.0,0 STARLINK-5153,1 54088U 22136AP  23293.17613986  .00000169  00000-0  28754-4 0  9995,2 54088  53.2176 286.6016 0001902  90.9313 269.1897 15.08836812 55887,6917.89,95.438,541.071,538.439,0.0
54088.0,STARLINK-5153,PAYLOAD,2023-10-20 08:59:47,15.08844759,0.0001806,53.2177,285.7095,89.6611,270.4588,6.7561e-05,7.87e-06,0.0,0 STARLINK-5153,1 54088U 22136AP  23293.37485753  .00000787  00000-0  67561-4 0  9991,2 54088  53.2177 285.7095 0001806  89.6611 270.4588 15.08844759 55447,6917.866,95.437,540.98,538.481,0.0
54088.0,STARLINK-5153,PAYLOAD,2023-10-21 05:39:49,15.08837732,0.0001785,53.2184,281.8399,98.8538,261.2657,3.2144e-05,2.23e-06,0.0,0 STARLINK-5153,1 54088U 22136AP  23294.23598453  .00000223  00000-0  32144-4 0  9993,2 54088  53.2184 281.8399 0001785  98.8538 261.2657 15.08837732 56040,6917.887,95.438,540.987,538.517,0.0
54088.0,STARLINK-5153,PAYLOAD,2023-10-21 16:47:31,15.08840363,0.0001918,53.2197,279.7593,101.3984,258.7224,0.00017482,2.495e-05,0.0,0 STARLINK-5153,1 54088U 22136AP  23294.69966498  .00002495  00000-0  17482-3 0  9991,2 54088  53.2197 279.7593 0001918 101.3984 258.7224 15.08840363 55649,6917.879,95.438,541.071,538.417,0.0
54088.0,STARLINK-5153,PAYLOAD,2023-10-22 05:30:35,15.08857504,0.0001642,53.2175,277.3815,97.6857,262.4322,0.0004983,7.655e-05,0.0,0 STARLINK-5153,1 54088U 22136AP  23295.22957720  .00007655  00000-0  49830-3 0  9994,2 54088  53.2175 277.3815 0001642  97.6857 262.4322 15.08857504 56193,6917.827,95.436,540.828,538.556,0.0
54088.0,STARLINK-5153,PAYLOAD,2023-10-22 08:41:21,15.08862914,0.0001631,53.2172,276.7866,99.2086,260.9091,0.0006255,9.687e-05,0.0,0 STARLINK-5153,1 54088U 22136AP  23295.36205523  .00009687  00000-0  62550-3 0  9997,2 54088  53.2172 276.7866 0001631  99.2086 260.9091 15.08862914 55746,6917.81,95.436,540.804,538.547,0.0
54088.0,STARLINK-5153,PAYLOAD,2023-10-23 05:21:22,15.0884243,0.0001576,53.2168,272.9217,105.5432,254.5734,6.7835e-05,7.92e-06,0.0,0 STARLINK-5153,1 54088U 22136AP  23296.22318077  .00000792  00000-0  67835-4 0  9992,2 54088  53.2168 272.9217 0001576 105.5432 254.5734 15.08842430 56344,6917.873,95.437,540.828,538.648,0.0
54088.0,STARLINK-5153,PAYLOAD,2023-10-24 05:12:09,15.08849601,0.0001587,53.217,268.4615,107.5148,252.6018,0.00066146,0.00010258,0.0,0 STARLINK-5153,1 54088U 22136AP  23297.21678113  .00010258  00000-0  66146-3 0  9993,2 54088  53.2170 268.4615 0001587 107.5148 252.6018 15.08849601 56023,6917.851,95.437,540.814,538.618,0.0
54088.0,STARLINK-5153,PAYLOAD,2023-10-25 08:13:43,15.08842902,0.0001542,53.2163,263.4072,106.2069,253.9093,0.00020349,2.952e-05,0.0,0 STARLINK-5153,1 54088U 22136AP  23298.34286525  .00002952  00000-0  20349-3 0  9997,2 54088  53.2163 263.4072 0001542 106.2069 253.9093 15.08842902 56660,6917.872,95.437,540.803,538.67,0.0
54088.0,STARLINK-5153,PAYLOAD,2023-10-26 06:29:07,15.0884854,0.000148,53.216,259.244,103.0137,257.102,0.00015466,2.175e-05,0.0,0 STARLINK-5153,1 54088U 22136AP  23299.27022296  .00002175  00000-0  15466-3 0  9994,2 54088  53.2160 259.2440 0001480 103.0137 257.1020 15.08848540 56335,6917.854,95.437,540.743,538.695,0.0
54088.0,STARLINK-5153,PAYLOAD,2023-10-27 04:44:31,15.08851944,0.0001531,53.2159,255.082,97.7811,262.3355,0.00030341,4.546e-05,0.0,0 STARLINK-5153,1 54088U 22136AP  23300.19758217  .00004546  00000-0  30341-3 0  9990,2 54088  53.2159 255.0820 0001531  97.7811 262.3355 15.08851944 56942,6917.844,95.437,540.768,538.65,0.0
54088.0,STARLINK-5153,PAYLOAD,2023-10-27 06:19:54,15.08854409,0.0001497,53.2156,254.7835,99.6317,260.4844,0.00035007,5.29e-05,0.0,0 STARLINK-5153,1 54088U 22136AP  23300.26381989  .00005290  00000-0  35007-3 0  9997,2 54088  53.2156 254.7835 0001497  99.6317 260.4844 15.08854409 56484,6917.836,95.437,540.737,538.666,0.0
54088.0,STARLINK-5153,PAYLOAD,2023-10-27 20:38:23,15.08837428,0.0002051,53.2156,252.1075,83.9792,276.1434,4.386e-05,4.1e-06,0.0,0 STARLINK-5153,1 54088U 22136AP  23300.85999006  .00000410  00000-0  43860-4 0  9993,2 54088  53.2156 252.1075 0002051  83.9792 276.1434 15.08837428 57046,6917.888,95.438,541.172,538.334,0.0
54088.0,STARLINK-5153,PAYLOAD,2023-10-28 14:07:37,15.08838818,0.0001554,53.2164,248.8354,94.0629,266.054,0.00022281,3.26e-05,0.0,0 STARLINK-5153,1 54088U 22136AP  23301.58863049  .00003260  00000-0  22281-3 0  9990,2 54088  53.2164 248.8354 0001554  94.0629 266.0540 15.08838818 56685,6917.884,95.438,540.824,538.674,0.0
54088.0,STARLINK-5153,PAYLOAD,2023-10-29 02:50:42,15.08858624,0.0001538,53.2164,246.4549,101.9975,258.119,0.00092147,0.00014415,0.0,0 STARLINK-5153,1 54088U 22136AP  23302.11854659  .00014415  00000-0  92147-3 0  9999,2 54088  53.2164 246.4549 0001538 101.9975 258.1190 15.08858624 57231,6917.823,95.436,540.752,538.625,0.0
54088.0,STARLINK-5153,PAYLOAD,2023-10-29 13:58:24,15.0884091,0.0001733,53.2183,244.3745,88.031,272.0881,0.00013424,1.849e-05,0.0,0 STARLINK-5153,1 54088U 22136AP  23302.58223071  .00001849  00000-0  13424-3 0  9996,2 54088  53.2183 244.3745 0001733  88.0310 272.0881 15.08840910 56838,6917.878,95.437,540.941,538.544,0.0
54088.0,STARLINK-5153,PAYLOAD,2023-10-30 05:52:16,15.08845237,0.0001469,53.218,241.399,105.3685,254.7469,0.0005783,8.929e-05,0.0,0 STARLINK-5153,1 54088U 22136AP  23303.24463026  .00008929  00000-0  57830-3 0  9991,2 54088  53.2180 241.3990 0001469 105.3685 254.7469 15.08845237 56935,6917.864,95.437,540.746,538.713,0.0
54088.0,STARLINK-5153,PAYLOAD,2023-10-31 00:56:54,15.0885375,0.0001203,53.217,237.8314,110.4823,249.6298,0.0010796,0.00016942,0.0,0 STARLINK-5153,1 54088U 22136AP  23304.03951394  .00016942  00000-0  10796-2 0  9992,2 54088  53.2170 237.8314 0001203 110.4823 249.6298 15.08853750 57529,6917.838,95.437,540.536,538.871,0.0
54088.0,STARLINK-5153,PAYLOAD,2023-10-31 12:04:35,15.08850423,0.0001147,53.2177,235.7518,91.3486,268.7638,0.00077473,0.00012067,0.0,0 STARLINK-5153,1 54088U 22136AP  23304.50319397  .00012067  00000-0  77473-3 0  9995,2 54088  53.2177 235.7518 0001147  91.3486 268.7638 15.08850423 57599,6917.849,95.437,540.507,538.92,0.0
54088.0,STARLINK-5153,PAYLOAD,2023-11-01 02:22:54,15.09313585,0.0001539,53.217,233.0748,232.0673,128.018,0.014524,0.00242024,0.0,0 STARLINK-5153,1 54088U 22136AP  23305.09924046  .00242024  00000-0  14524-1 0  9997,2 54088  53.2170 233.0748 0001539 232.0673 128.0180 15.09313585 57689,6916.433,95.408,539.363,537.234,0.0
54088.0,STARLINK-5153,PAYLOAD,2023-11-01 11:55:21,15.0890085,0.0001172,53.2167,231.2926,88.5807,271.5319,0.0017467,0.00027667,0.0,0 STARLINK-5153,1 54088U 22136AP  23305.49677475  .00027667  00000-0  17467-2 0  9996,2 54088  53.2167 231.2926 0001172  88.5807 271.5319 15.08900850 57740,6917.694,95.434,540.37,538.749,0.0
54088.0,STARLINK-5153,PAYLOAD,2023-11-01 18:16:52,15.08906421,0.0001919,53.2161,230.103,87.0483,273.0729,0.0012709,0.00020033,0.0,0 STARLINK-5153,1 54088U 22136AP  23305.76172153  .00020033  00000-0  12709-2 0  9993,2 54088  53.2161 230.1030 0001919  87.0483 273.0729 15.08906421 57316,6917.677,95.433,540.87,538.215,0.0
54088.0,STARLINK-5153,PAYLOAD,2023-11-02 02:13:49,15.08831363,9.8e-05,53.2165,228.6161,51.4412,308.6667,-0.0009155,-0.00014825,0.0,0 STARLINK-5153,1 54088U 22136AP  23306.09293940 -.00014825  00000-0 -91550-3 0  9994,2 54088  53.2165 228.6161 0000980  51.4412 308.6667 15.08831363 57836,6917.907,95.438,540.45,539.094,0.0
54088.0,STARLINK-5153,PAYLOAD,2023-11-02 11:46:08,15.08827775,0.0001041,53.2164,226.832,71.8959,288.2147,-0.00058752,-9.623e-05,0.0,0 STARLINK-5153,1 54088U 22136AP  23306.49038063 -.00009623  00000-0 -58752-3 0  9998,2 54088  53.2164 226.8320 0001041  71.8959 288.2147 15.08827775 57426,6917.918,95.438,540.503,539.063,0.0
54088.0,STARLINK-5153,PAYLOAD,2023-11-03 03:40:01,15.08841418,0.0001209,53.2157,223.86,75.236,284.8766,0.0014569,0.00022975,0.0,0 STARLINK-5153,1 54088U 22136AP  23307.15278940  .00022975  00000-0  14569-2 0  9992,2 54088  53.2157 223.8600 0001209  75.2360 284.8766 15.08841418 57997,6917.876,95.437,540.577,538.905,0.0
